GLOBALSTAR M057         
1 25943U 99058A   24302.67649076 -.00000099  00000+0 -55325-4 0  9993
2 25943  51.9988 285.2184 0002111 270.7711  89.2896 12.24801801138567
GLOBALSTAR M039         
1 25961U 99062A   24302.87806626 -.00000100  00000+0  22976-4 0  9994
2 25961  51.9842 253.2290 0002262 187.0548 173.0287 12.62308161151007
GLOBALSTAR M034         
1 25962U 99062B   24302.92028427 -.00000057  00000+0  38384-3 0  9996
2 25962  51.9868 252.5437 0014184 327.2097  72.0379 11.79435145111101
GLOBALSTAR M029         
1 25963U 99062C   24302.87703133 -.00000040  00000+0  57648-3 0  9991
2 25963  51.9838   1.1720 0002550  30.6340 141.0656 11.99885550141358
GLOBALSTAR M061         
1 25964U 99062D   24302.76629171 -.00000066  00000+0  23033-3 0  9998
2 25964  51.9795  73.9051 0005387 244.0463 269.2549 11.76767612 93930
